{"type": "FeatureCollection", "features": [ {"type": "Feature", "properties": {"norad_id": 66810, "name": "STARLINK-36046", "group": "last-30-days", "lat": 34.86327243259282, "lon": -38.15010952294525, "alt_km": 407.0130701346452, "timestamp": "2025-12-22T23:36:19.411093+00:00", "meta": {"OBJECT_NAME": "STARLINK-36046", "OBJECT_ID": "2025-278V", "EPOCH": "2025-12-22T14:00:01.999872", "MEAN_MOTION": 15.53194903, "ECCENTRICITY": 0.00014802, "INCLINATION": 42.9991, "RA_OF_ASC_NODE": 192.5835, "ARG_OF_PERICENTER": 257.0801, "MEAN_ANOMALY": 146.5971, "EPHEMERIS_TYPE": 0, "CLASSIFICATION_TYPE": "U", "NORAD_CAT_ID": 66810, "ELEMENT_SET_NO": 999, "REV_AT_EPOCH": 431, "BSTAR": -0.030217828, "MEAN_MOTION_DOT": -0.01736931, "MEAN_MOTION_DDOT": 0}, "tle": {"line1": "1 66810U 25278V   25356.58335648 -.01736931  00000+0 -30218-1 0  9994", "line2": "2 66810  42.9991 192.5835 0001480 257.0801 146.5971 15.53194903  4317"}}, "geometry": {"type": "Point", "coordinates": [-38.15010952294525, 34.86327243259282]}}, {"type": "Feature", "properties": {"norad_id": 66811, "name": "STARLINK-36045", "group": "last-30-days", "lat": 33.97689132383002, "lon": -36.09192647884559, "alt_km": 407.129291931371, "timestamp": "2025-12-22T23:36:19.411103+00:00", "meta": {"OBJECT_NAME": "STARLINK-36045", "OBJECT_ID": "2025-278W", "EPOCH": "2025-12-22T14:00:01.999872", "MEAN_MOTION": 15.53195654, "ECCENTRICITY": 0.00015041, "INCLINATION": 42.999, "RA_OF_ASC_NODE": 192.5783, "ARG_OF_PERICENTER": 256.7516, "MEAN_ANOMALY": 148.8416, "EPHEMERIS_TYPE": 0, "CLASSIFICATION_TYPE": "U", "NORAD_CAT_ID": 66811, "ELEMENT_SET_NO": 999, "REV_AT_EPOCH": 454, "BSTAR": -0.030206908, "MEAN_MOTION_DOT": -0.01736427, "MEAN_MOTION_DDOT": 0}, "tle": {"line1": "1 66811U 25278W   25356.58335648 -.01736427  00000+0 -30207-1 0  9993", "line2": "2 66811  42.9990 192.5783 0001504 256.7516 148.8416 15.53195654  4543"}}, "geometry": {"type": "Point", "coordinates": [-36.09192647884559, 33.97689132383002]}}, {"type": "Feature", "properties": {"norad_id": 66812, "name": "STARLINK-36054", "group": "last-30-days", "lat": 32.10617813813757, "lon": -32.10626073690928, "alt_km": 407.38714024832734, "timestamp": "2025-12-22T23:36:19.411113+00:00", "meta": {"OBJECT_NAME": "STARLINK-36054", "OBJECT_ID": "2025-278X", "EPOCH": "2025-12-22T14:00:01.999872", "MEAN_MOTION": 15.53193547, "ECCENTRICITY": 0.00015433, "INCLINATION": 42.9991, "RA_OF_ASC_NODE": 192.5686, "ARG_OF_PERICENTER": 256.4244, "MEAN_ANOMALY": 153.0043, "EPHEMERIS_TYPE": 0, "CLASSIFICATION_TYPE": "U", "NORAD_CAT_ID": 66812, "ELEMENT_SET_NO": 999, "REV_AT_EPOCH": 454, "BSTAR": -0.030205296, "MEAN_MOTION_DOT": -0.01736245, "MEAN_MOTION_DDOT": 0}, "tle": {"line1": "1 66812U 25278X   25356.58335648 -.01736245  00000+0 -30205-1 0  9990", "line2": "2 66812  42.9991 192.5686 0001543 256.4244 153.0043 15.53193547  4548"}}, "geometry": {"type": "Point", "coordinates": [-32.10626073690928, 32.10617813813757]}}, {"type": "Feature", "properties": {"norad_id": 66813, "name": "STARLINK-36042", "group": "last-30-days", "lat": 31.123252589523947, "lon": -30.173365541433135, "alt_km": 407.5222078862407, "timestamp": "2025-12-22T23:36:19.411123+00:00", "meta": {"OBJECT_NAME": "STARLINK-36042", "OBJECT_ID": "2025-278Y", "EPOCH": "2025-12-22T14:00:01.999872", "MEAN_MOTION": 15.53189657, "ECCENTRICITY": 0.00014593, "INCLINATION": 42.9993, "RA_OF_ASC_NODE": 192.5631, "ARG_OF_PERICENTER": 258.9074, "MEAN_ANOMALY": 152.4423, "EPHEMERIS_TYPE": 0, "CLASSIFICATION_TYPE": "U", "NORAD_CAT_ID": 66813, "ELEMENT_SET_NO": 999, "REV_AT_EPOCH": 454, "BSTAR": -0.030135174, "MEAN_MOTION_DOT": -0.01732382, "MEAN_MOTION_DDOT": 0}, "tle": {"line1": "1 66813U 25278Y   25356.58335648 -.01732382  00000+0 -30135-1 0  9991", "line2": "2 66813  42.9993 192.5631 0001459 258.9074 152.4423 15.53189657  4547"}}, "geometry": {"type": "Point", "coordinates": [-30.173365541433135, 31.123252589523947]}}, {"type": "Feature", "properties": {"norad_id": 66814, "name": "STARLINK-35984", "group": "last-30-days", "lat": 24.69624885532914, "lon": -19.385673383219977, "alt_km": 408.373694341406, "timestamp": "2025-12-22T23:36:19.411140+00:00", "meta": {"OBJECT_NAME": "STARLINK-35984", "OBJECT_ID": "2025-278Z", "EPOCH": "2025-12-22T14:00:01.999872", "MEAN_MOTION": 15.53199485, "ECCENTRICITY": 0.00015264, "INCLINATION": 42.9994, "RA_OF_ASC_NODE": 192.534, "ARG_OF_PERICENTER": 257.0239, "MEAN_ANOMALY": 165.824, "EPHEMERIS_TYPE": 0, "CLASSIFICATION_TYPE": "U", "NORAD_CAT_ID": 66814, "ELEMENT_SET_NO": 999, "REV_AT_EPOCH": 462, "BSTAR": -0.030484905, "MEAN_MOTION_DOT": -0.01750901, "MEAN_MOTION_DDOT": 0}, "tle": {"line1": "1 66814U 25278Z   25356.58335648 -.01750901  00000+0 -30485-1 0  9997", "line2": "2 66814  42.9994 192.5340 0001526 257.0239 165.8240 15.53199485  4628"}}, "geometry": {"type": "Point", "coordinates": [-19.385673383219977, 24.69624885532914]}}, {"type": "Feature", "properties": {"norad_id": 66815, "name": "STARLINK-35985", "group": "last-30-days", "lat": 25.821259192241886, "lon": -21.093117752130617, "alt_km": 408.2552848772075, "timestamp": "2025-12-22T23:36:19.411150+00:00", "meta": {"OBJECT_NAME": "STARLINK-35985", "OBJECT_ID": "2025-278AA", "EPOCH": "2025-12-22T14:00:01.999872", "MEAN_MOTION": 15.53198307, "ECCENTRICITY": 0.00014476, "INCLINATION": 42.9993, "RA_OF_ASC_NODE": 192.5387, "ARG_OF_PERICENTER": 260.6753, "MEAN_ANOMALY": 160.2551, "EPHEMERIS_TYPE": 0, "CLASSIFICATION_TYPE": "U", "NORAD_CAT_ID": 66815, "ELEMENT_SET_NO": 999, "REV_AT_EPOCH": 462, "BSTAR": -0.030339438, "MEAN_MOTION_DOT": -0.01743341, "MEAN_MOTION_DDOT": 0}, "tle": {"line1": "1 66815U 25278AA  25356.58335648 -.01743341  00000+0 -30339-1 0  9996", "line2": "2 66815  42.9993 192.5387 0001447 260.6753 160.2551 15.53198307  4628"}}, "geometry": {"type": "Point", "coordinates": [-21.093117752130617, 25.821259192241886]}}, {"type": "Feature", "properties": {"norad_id": 66816, "name": "STARLINK-36098", "group": "last-30-days", "lat": 30.112688825502577, "lon": -28.281827983870684, "alt_km": 407.67044390927276, "timestamp": "2025-12-22T23:36:19.411160+00:00", "meta": {"OBJECT_NAME": "STARLINK-36098", "OBJECT_ID": "2025-278AB", "EPOCH": "2025-12-22T14:00:01.999872", "MEAN_MOTION": 15.53197008, "ECCENTRICITY": 0.00014789, "INCLINATION": 42.9992, "RA_OF_ASC_NODE": 192.5585, "ARG_OF_PERICENTER": 259.0135, "MEAN_ANOMALY": 154.25, "EPHEMERIS_TYPE": 0, "CLASSIFICATION_TYPE": "U", "NORAD_CAT_ID": 66816, "ELEMENT_SET_NO": 999, "REV_AT_EPOCH": 438, "BSTAR": -0.03031313, "MEAN_MOTION_DOT": -0.01741936, "MEAN_MOTION_DDOT": 0}, "tle": {"line1": "1 66816U 25278AB  25356.58335648 -.01741936  00000+0 -30313-1 0  9997", "line2": "2 66816  42.9992 192.5585 0001478 259.0135 154.2500 15.53197008  4385"}}, "geometry": {"type": "Point", "coordinates": [-28.281827983870684, 30.112688825502577]}}, {"type": "Feature", "properties": {"norad_id": 66817, "name": "STARLINK-35995", "group": "last-30-days", "lat": 28.015247577397272, "lon": -24.617789108190472, "alt_km": 407.9087546545761, "timestamp": "2025-12-22T23:36:19.411169+00:00", "meta": {"OBJECT_NAME": "STARLINK-35995", "OBJECT_ID": "2025-278AC", "EPOCH": "2025-12-22T14:00:01.999872", "MEAN_MOTION": 15.53201896, "ECCENTRICITY": 0.0001484, "INCLINATION": 42.9992, "RA_OF_ASC_NODE": 192.5487, "ARG_OF_PERICENTER": 256.4803, "MEAN_ANOMALY": 160.6146, "EPHEMERIS_TYPE": 0, "CLASSIFICATION_TYPE": "U", "NORAD_CAT_ID": 66817, "ELEMENT_SET_NO": 999, "REV_AT_EPOCH": 454, "BSTAR": -0.030476981, "MEAN_MOTION_DOT": -0.0175061, "MEAN_MOTION_DDOT": 0}, "tle": {"line1": "1 66817U 25278AC  25356.58335648 -.01750610  00000+0 -30477-1 0  9998", "line2": "2 66817  42.9992 192.5487 0001484 256.4803 160.6146 15.53201896  4543"}}, "geometry": {"type": "Point", "coordinates": [-24.617789108190472, 28.015247577397272]}}, {"type": "Feature", "properties": {"norad_id": 66818, "name": "STARLINK-35994", "group": "last-30-days", "lat": 29.07615757672162, "lon": -26.430104772171585, "alt_km": 407.85486015023616, "timestamp": "2025-12-22T23:36:19.411181+00:00", "meta": {"OBJECT_NAME": "STARLINK-35994", "OBJECT_ID": "2025-278AD", "EPOCH": "2025-12-22T14:00:01.999872", "MEAN_MOTION": 15.53195242, "ECCENTRICITY": 0.00015107, "INCLINATION": 42.9993, "RA_OF_ASC_NODE": 192.5539, "ARG_OF_PERICENTER": 260.9991, "MEAN_ANOMALY": 154.1814, "EPHEMERIS_TYPE": 0, "CLASSIFICATION_TYPE": "U", "NORAD_CAT_ID": 66818, "ELEMENT_SET_NO": 999, "REV_AT_EPOCH": 454, "BSTAR": -0.030260354, "MEAN_MOTION_DOT": -0.01739147, "MEAN_MOTION_DDOT": 0}, "tle": {"line1": "1 66818U 25278AD  25356.58335648 -.01739147  00000+0 -30260-1 0  9991", "line2": "2 66818  42.9993 192.5539 0001510 260.9991 154.1814 15.53195242  4548"}}, "geometry": {"type": "Point", "coordinates": [-26.430104772171585, 29.07615757672162]}}, {"type": "Feature", "properties": {"norad_id": 66819, "name": "STARLINK-35989", "group": "last-30-days", "lat": 26.92833161052121, "lon": -22.83693972838143, "alt_km": 408.185982738416, "timestamp": "2025-12-22T23:36:19.411191+00:00", "meta": {"OBJECT_NAME": "STARLINK-35989", "OBJECT_ID": "2025-278AE", "EPOCH": "2025-12-22T14:00:01.999872", "MEAN_MOTION": 15.53201347, "ECCENTRICITY": 0.00014936, "INCLINATION": 42.9992, "RA_OF_ASC_NODE": 192.5436, "ARG_OF_PERICENTER": 263.532, "MEAN_ANOMALY": 155.4804, "EPHEMERIS_TYPE": 0, "CLASSIFICATION_TYPE": "U", "NORAD_CAT_ID": 66819, "ELEMENT_SET_NO": 999, "REV_AT_EPOCH": 454, "BSTAR": -0.030428619, "MEAN_MOTION_DOT": -0.01748108, "MEAN_MOTION_DDOT": 0}, "tle": {"line1": "1 66819U 25278AE  25356.58335648 -.01748108  00000+0 -30429-1 0  9996", "line2": "2 66819  42.9992 192.5436 0001493 263.5320 155.4804 15.53201347  4546"}}, "geometry": {"type": "Point", "coordinates": [-22.83693972838143, 26.92833161052121]}}]}